IRIDIUM 33 DEB          
1 35848U 97051SY  24366.19527472  .00024152  00000+0  41545-2 0  9992
2 35848  86.3956 170.6977 0011038 344.4264  15.6610 14.68453252615869
IRIDIUM 33 DEB          
1 35850U 97051TA  24359.73375040  .00020530  00000+0  35229-2 0  9997
2 35850  86.3539 143.5354 0013350 353.5132   6.5908 14.68557871661571
IRIDIUM 33 DEB          
1 35915U 97051TY  24366.11732027  .00028264  00000+0  47320-2 0  9998
2 35915  86.3505 139.9393 0015812 331.5871  28.4480 14.69585387 29759
IRIDIUM 33 DEB          
1 35918U 97051UB  24366.92009441  .00011900  00000+0  32428-2 0  9999
2 35918  86.4033 223.6293 0025905 249.4085 173.9001 14.47123145804524
IRIDIUM 33 DEB          
1 35929U 97051UN  24366.60924207  .00043168  00000+0  53921-2 0  9994
2 35929  86.3431 113.8464 0020744 183.6785 176.4288 14.82000099826192
IRIDIUM 33 DEB          
1 36011U 97051US  24365.76969998  .00005905  00000+0  18799-2 0  9990
2 36011  86.3426 184.1957 0017696 287.4633 128.0655 14.39633118595453
IRIDIUM 33 DEB          
1 36012U 97051UT  24365.68831572  .00016457  00000+0  70630-2 0  9994
2 36012  86.4436  86.2018 0237353 276.6609  80.7612 14.10693866605806
IRIDIUM 33 DEB          
1 36028U 97051VK  24365.97976302  .00039020  00000+0  52501-2 0  9992
2 36028  86.3323 107.5409 0023761 199.6773 160.3533 14.78852216819714
IRIDIUM 33 DEB          
1 36080U 97051VM  24360.18226888  .00006565  00000+0  19053-2 0  9998
2 36080  86.3214 161.2791 0016128 253.1874 106.7558 14.44181247423218
IRIDIUM 33 DEB          
1 36083U 97051VQ  24365.76806326  .00006991  00000+0  21525-2 0  9991
2 36083  86.3454 183.2458 0025892 294.9154  64.9354 14.41191523804489
IRIDIUM 33 DEB          
1 36390U 97051VU  24364.55037299  .00021444  00000+0  38406-2 0  9999
2 36390  86.2985  98.0340 0034356 291.2584  68.4962 14.66324834611450
IRIDIUM 33 DEB          
1 36483U 97051VZ  24366.28842221  .00005778  00000+0  16962-2 0  9998
2 36483  86.3790 200.4600 0008323 187.8471 172.2601 14.43668523601438
IRIDIUM 33 DEB          
1 36490U 97051WG  24366.41953563  .00024960  00000+0  45366-2 0  9997
2 36490  86.3731 165.3849 0002004 156.6958 203.4347 14.66037980813924
IRIDIUM 33 DEB          
1 36493U 97051WK  24366.19376823  .00017149  00000+0  36517-2 0  9992
2 36493  86.3617 164.8611 0013064  87.8549 272.4156 14.58842517820451
IRIDIUM 33 DEB          
1 37548U 97051XH  24366.79996602  .00013091  00000+0  35831-2 0  9993
2 37548  86.3604 193.3489 0024926 270.9829  88.8518 14.46927059809016
IRIDIUM 33 DEB          
1 37550U 97051XK  24366.21542293  .00018040  00000+0  37287-2 0  9992
2 37550  86.3812 176.5894 0001431 208.8797 151.2334 14.60259853812632
IRIDIUM 33 DEB          
1 37562U 97051XX  24366.29897566  .00012787  00000+0  31709-2 0  9994
2 37562  86.3776 194.0207 0025238 190.4463 343.3261 14.51619190812934
IRIDIUM 33 DEB          
1 38017U 97051YD  24365.83771957  .00019051  00000+0  59944-2 0  9996
2 38017  86.3361 315.1221 0128291 160.8695 199.7386 14.35674813564078
IRIDIUM 33 DEB          
1 38022U 97051YJ  24366.18354482  .00009384  00000+0  30375-2 0  9996
2 38022  86.2756 167.7247 0048718 104.6040 256.0568 14.38253148642078
IRIDIUM 33 DEB          
1 38028U 97051YQ  24365.66305424  .00005685  00000+0  16278-2 0  9992
2 38028  86.3269 150.9482 0028634 193.8297 166.2123 14.44654965604816
IRIDIUM 33 DEB          
1 38228U 97051ZC  24366.29607193  .00002485  00000+0  10058-2 0  9997
2 38228  86.2970 195.5468 0063426 225.5196 309.5088 14.26348589798418
IRIDIUM 33 DEB          
1 38236U 97051ZL  24365.76695277  .00108801  00000+0  12858-1 0  9995
2 38236  86.2471 125.4633 0040214 283.1918  76.4820 14.83508046565911
IRIDIUM 33 DEB          
1 38241U 97051ZR  24366.68303861  .00011058  00000+0  27508-2 0  9994
2 38241  86.3259 142.8741 0004090 128.3974 231.7599 14.51660025551745
IRIDIUM 33 DEB          
1 38469U 97051ZW  24364.34515352  .00473761  00000+0  24913-1 0  9996
2 38469  86.2210 227.9108 0031004 134.6834 225.6939 15.13053250561000
IRIDIUM 33 DEB          
1 38474U 97051AAB 24366.15818796  .00008228  00000+0  21913-2 0  9991
2 38474  86.3539 160.7910 0027098 159.8371 200.3909 14.48187170813675
IRIDIUM 33 DEB          
1 39777U 97051AAJ 24364.92349945  .00035513  00000+0  95973-2 0  9990
2 39777  85.9650 342.7984 0065363 274.5190  84.8547 14.46339132578503
IRIDIUM 33 DEB          
1 39778U 97051AAK 24366.24488744  .00010347  00000+0  26475-2 0  9998
2 39778  86.3806 193.0975 0009441 101.7288 258.4976 14.50301453556638
IRIDIUM 33 DEB          
1 39781U 97051AAN 24365.35558169  .00043735  00000+0  19700-1 0  9991
2 39781  86.3716  40.2088 0195855 289.2245  80.5861 14.12338689 31870
IRIDIUM 33 DEB          
1 40996U 97051ABJ 24362.72081686  .00040493  00000+0  60081-2 0  9991
2 40996  86.3642 161.9105 0009225 207.4233 164.3905 14.74834358572910
